{
    "links": {
        "self": "http://www.neowsapp.com/rest/v1/neo/3636250?api_key=iIulBulltgU6a56xZRHN4H3l9WmuAYTsLGpBGhQ2"
    },
    "id": "3636250",
    "neo_reference_id": "3636250",
    "name": "(2013 HG19)",
    "designation": "2013 HG19",
    "nasa_jpl_url": "http://ssd.jpl.nasa.gov/sbdb.cgi?sstr=3636250",
    "absolute_magnitude_h": 25.4,
    "estimated_diameter": {
        "kilometers": {
            "estimated_diameter_min": 0.022108281,
            "estimated_diameter_max": 0.0494356193
        },
        "meters": {
            "estimated_diameter_min": 22.1082810359,
            "estimated_diameter_max": 49.435619262
        },
        "miles": {
            "estimated_diameter_min": 0.0137374447,
            "estimated_diameter_max": 0.0307178602
        },
        "feet": {
            "estimated_diameter_min": 72.5337327539,
            "estimated_diameter_max": 162.1903570994
        }
    },
    "is_potentially_hazardous_asteroid": false,
    "close_approach_data": [
        {
            "close_approach_date": "2013-04-29",
            "close_approach_date_full": "2013-Apr-29 04:04",
            "epoch_date_close_approach": 1367208240000,
            "relative_velocity": {
                "kilometers_per_second": "7.5524870996",
                "kilometers_per_hour": "27188.9535584751",
                "miles_per_hour": "16894.1583930425"
            },
            "miss_distance": {
                "astronomical": "0.0640006434",
                "lunar": "24.8962502826",
                "kilometers": "9574359.931269558",
                "miles": "5949231.3917655804"
            },
            "orbiting_body": "Earth"
        }
    ],
    "orbital_data": {
        "orbit_id": "7",
        "orbit_determination_date": "2017-04-06 08:46:00",
        "first_observation_date": "2013-04-29",
        "last_observation_date": "2013-05-13",
        "data_arc_in_days": 14,
        "observations_used": 41,
        "orbit_uncertainty": "7",
        "minimum_orbit_intersection": ".064041",
        "jupiter_tisserand_invariant": "4.451",
        "epoch_osculation": "2459000.5",
        "eccentricity": ".2908399953213045",
        "semi_major_axis": "1.510158343797952",
        "inclination": "12.63961078446952",
        "ascending_node_longitude": "217.2263570631881",
        "orbital_period": "677.8477466082322",
        "perihelion_distance": "1.070943898153327",
        "perihelion_argument": "2.519325886615215",
        "aphelion_distance": "1.949372789442577",
        "perihelion_time": "2459123.959702614620",
        "mean_anomaly": "294.4314513640321",
        "mean_motion": ".5310927148483463",
        "equinox": "J2000",
        "orbit_class": {
            "orbit_class_type": "AMO",
            "orbit_class_description": "Near-Earth asteroid orbits similar to that of 1221 Amor",
            "orbit_class_range": "1.017 AU < q (perihelion) < 1.3 AU"
        }
    },
    "is_sentry_object": false
}